NORAD_CAT_ID,OBJECT_NAME,OBJECT_TYPE,EPOCH,MEAN_MOTION,ECCENTRICITY,INCLINATION,RA_OF_ASC_NODE,ARG_OF_PERICENTER,MEAN_ANOMALY,BSTAR,MEAN_MOTION_DOT,MEAN_MOTION_DDOT,TLE_LINE0,TLE_LINE1,TLE_LINE2,SEMIMAJOR_AXIS,PERIOD,APOGEE,PERIGEE,DECAYED
55432.0,STARLINK-5637,PAYLOAD,2024-07-07 11:10:01,14.9833149,0.0003233,69.9988,203.0188,269.413,90.6659,1.9694e-05,1.42e-06,0.0,0 STARLINK-5637,1 55432U 23014AT  24189.46529034  .00000142  00000-0  19694-4 0  9996,2 55432  69.9988 203.0188 0003233 269.4130  90.6659 14.98331490 79663,6950.188,96.107,574.3,569.806,0.0
55432.0,STARLINK-5637,PAYLOAD,2024-07-08 09:35:53,14.98330511,0.0003201,69.9992,200.6623,270.8788,89.2004,6.1352e-05,6.39e-06,0.0,0 STARLINK-5637,1 55432U 23014AT  24190.39992975  .00000639  00000-0  61352-4 0  9997,2 55432  69.9992 200.6623 0003201 270.8788  89.2004 14.98330511 78867,6950.191,96.107,574.281,569.832,0.0
55432.0,STARLINK-5637,PAYLOAD,2024-07-08 17:36:34,14.98331574,0.0003209,69.9992,199.8207,270.9251,89.154,5.588e-05,5.74e-06,0.0,0 STARLINK-5637,1 55432U 23014AT  24190.73372915  .00000574  00000-0  55880-4 0  9998,2 55432  69.9992 199.8207 0003209 270.9251  89.1540 14.98331574 79852,6950.188,96.107,574.283,569.823,0.0
55432.0,STARLINK-5637,PAYLOAD,2024-07-09 09:37:54,14.98331667,0.0003191,69.9993,198.138,268.9274,91.152,5.0824e-05,5.13e-06,0.0,0 STARLINK-5637,1 55432U 23014AT  24191.40132858  .00000513  00000-0  50824-4 0  9999,2 55432  69.9993 198.1380 0003191 268.9274  91.1520 14.98331667 79011,6950.188,96.107,574.271,569.835,0.0
55432.0,STARLINK-5637,PAYLOAD,2024-07-10 11:16:04,14.98327731,0.0003157,69.9993,195.4448,268.8542,91.2255,-9.1505e-06,-2.02e-06,0.0,0 STARLINK-5637,1 55432U 23014AT  24192.46949325 -.00000202  00000-0 -91505-5 0  9990,2 55432  69.9993 195.4448 0003157 268.8542  91.2255 14.98327731 79175,6950.2,96.107,574.259,569.871,0.0
55432.0,STARLINK-5637,PAYLOAD,2024-07-11 09:41:56,14.98331314,0.0003189,69.9992,193.0884,268.967,91.1123,3.0068e-05,2.66e-06,0.0,0 STARLINK-5637,1 55432U 23014AT  24193.40413015  .00000266  00000-0  30068-4 0  9991,2 55432  69.9992 193.0884 0003189 268.9670  91.1123 14.98331314 80256,6950.189,96.107,574.27,569.837,0.0
55432.0,STARLINK-5637,PAYLOAD,2024-07-11 17:42:37,14.98330554,0.0003253,69.9991,192.2463,269.5365,90.5421,5.878e-05,6.08e-06,0.0,0 STARLINK-5637,1 55432U 23014AT  24193.73792965  .00000608  00000-0  58780-4 0  9992,2 55432  69.9991 192.2463 0003253 269.5365  90.5421 14.98330554 79368,6950.191,96.107,574.317,569.795,0.0
55432.0,STARLINK-5637,PAYLOAD,2024-07-12 09:43:57,14.9833306,0.0003193,69.9992,190.5633,268.5227,91.5566,8.0648e-05,8.69e-06,0.0,0 STARLINK-5637,1 55432U 23014AT  24194.40552776  .00000869  00000-0  80648-4 0  9998,2 55432  69.9992 190.5633 0003193 268.5227  91.5566 14.98333060 80401,6950.183,96.107,574.268,569.829,0.0
55432.0,STARLINK-5637,PAYLOAD,2024-07-12 17:44:38,14.98331552,0.0003207,69.9993,189.7216,269.7953,90.2839,7.2531e-05,7.73e-06,0.0,0 STARLINK-5637,1 55432U 23014AT  24194.73932910  .00000773  00000-0  72531-4 0  9992,2 55432  69.9993 189.7216 0003207 269.7953  90.2839 14.98331552 79517,6950.188,96.107,574.282,569.824,0.0
55432.0,STARLINK-5637,PAYLOAD,2024-07-13 09:45:58,14.98332996,0.0003207,69.9993,188.0386,269.7835,90.2957,4.7116e-05,4.69e-06,0.0,0 STARLINK-5637,1 55432U 23014AT  24195.40692812  .00000469  00000-0  47116-4 0  9994,2 55432  69.9993 188.0386 0003207 269.7835  90.2957 14.98332996 80556,6950.184,96.107,574.278,569.82,0.0
55432.0,STARLINK-5637,PAYLOAD,2024-07-13 22:35:03,14.98330693,0.0003162,69.9994,186.6921,269.8872,90.1924,4.5189e-06,-3.9e-07,0.0,0 STARLINK-5637,1 55432U 23014AT  24195.94101082 -.00000039  00000-0  45189-5 0  9990,2 55432  69.9994 186.6921 0003162 269.8872  90.1924 14.98330693 80632,6950.191,96.107,574.253,569.858,0.0
55432.0,STARLINK-5637,PAYLOAD,2024-07-14 03:23:27,14.98330216,0.0003174,69.9994,186.1871,269.8078,90.2717,-7.9139e-07,-1.02e-06,0.0,0 STARLINK-5637,1 55432U 23014AT  24196.14129108 -.00000102  00000-0 -79139-6 0  9997,2 55432  69.9994 186.1871 0003174 269.8078  90.2717 14.98330216 79722,6950.192,96.107,574.263,569.851,0.0
55432.0,STARLINK-5637,PAYLOAD,2024-07-14 09:47:59,14.98332082,0.0003153,69.9995,185.5139,269.7949,90.2848,2.362e-05,1.89e-06,0.0,0 STARLINK-5637,1 55432U 23014AT  24196.40832919  .00000189  00000-0  23620-4 0  9992,2 55432  69.9995 185.5139 0003153 269.7949  90.2848 14.98332082 80704,6950.186,96.107,574.243,569.86,0.0
55432.0,STARLINK-5637,PAYLOAD,2024-07-14 16:12:31,14.98332697,0.0003149,69.9996,184.8406,269.9132,90.1666,3.7412e-05,3.53e-06,0.0,0 STARLINK-5637,1 55432U 23014AT  24196.67536817  .00000353  00000-0  37412-4 0  9996,2 55432  69.9996 184.8406 0003149 269.9132  90.1666 14.98332697 80748,6950.185,96.107,574.238,569.861,0.0
55432.0,STARLINK-5637,PAYLOAD,2024-07-15 05:01:36,14.98335499,0.0003155,69.9995,183.4942,269.3117,90.768,6.4611e-05,6.78e-06,0.0,0 STARLINK-5637,1 55432U 23014AT  24197.20944495  .00000678  00000-0  64611-4 0  9992,2 55432  69.9995 183.4942 0003155 269.3117  90.7680 14.98335499 79889,6950.176,96.107,574.234,569.848,0.0
55432.0,STARLINK-5637,PAYLOAD,2024-07-15 09:50:00,14.98336774,0.0003099,69.9997,182.9893,269.6665,90.4138,9.6767e-05,1.062e-05,0.0,0 STARLINK-5637,1 55432U 23014AT  24197.40972299  .00001062  00000-0  96767-4 0  9992,2 55432  69.9997 182.9893 0003099 269.6665  90.4138 14.98336774 80859,6950.172,96.107,574.191,569.883,0.0
55432.0,STARLINK-5637,PAYLOAD,2024-07-16 05:03:37,14.98331233,0.0002995,69.9998,180.9695,267.6377,92.4439,6.862e-05,7.26e-06,0.0,0 STARLINK-5637,1 55432U 23014AT  24198.21084604  .00000726  00000-0  68620-4 0  9999,2 55432  69.9998 180.9695 0002995 267.6377  92.4439 14.98331233 80031,6950.189,96.107,574.136,569.972,0.0
55432.0,STARLINK-5637,PAYLOAD,2024-07-16 09:52:01,14.98332058,0.0002986,69.9999,180.4645,267.1193,92.9624,7.4035e-05,7.91e-06,0.0,0 STARLINK-5637,1 55432U 23014AT  24198.41112527  .00000791  00000-0  74035-4 0  9996,2 55432  69.9999 180.4645 0002986 267.1193  92.9624 14.98332058 81008,6950.187,96.107,574.127,569.976,0.0
55432.0,STARLINK-5637,PAYLOAD,2024-07-17 05:05:37,14.9833378,0.0002934,70.0,178.445,266.759,93.3234,2.6426e-05,2.22e-06,0.0,0 STARLINK-5637,1 55432U 23014AT  24199.21224393  .00000222  00000-0  26426-4 0  9990,2 55432  70.0000 178.4450 0002934 266.7590  93.3234 14.98333780 80187,6950.181,96.107,574.085,570.007,0.0
55432.0,STARLINK-5637,PAYLOAD,2024-07-17 08:17:53,14.98335377,0.0002919,70.0001,178.1084,266.9945,93.088,4.2925e-05,4.19e-06,0.0,0 STARLINK-5637,1 55432U 23014AT  24199.34576216  .00000419  00000-0  42925-4 0  9998,2 55432  70.0001 178.1084 0002919 266.9945  93.0880 14.98335377 81142,6950.176,96.107,574.07,570.013,0.0
55432.0,STARLINK-5637,PAYLOAD,2024-07-18 05:07:39,14.98327253,0.0002884,70.0002,175.9213,267.6362,92.4467,5.4773e-06,-2.8e-07,0.0,0 STARLINK-5637,1 55432U 23014AT  24200.21364893 -.00000028  00000-0  54773-5 0  9995,2 55432  70.0002 175.9213 0002884 267.6362  92.4467 14.98327253 80332,6950.201,96.107,574.071,570.062,0.0
55432.0,STARLINK-5637,PAYLOAD,2024-07-18 08:19:55,14.98327708,0.0002875,70.0003,175.5847,267.6362,92.4468,9.6672e-06,2.2e-07,0.0,0 STARLINK-5637,1 55432U 23014AT  24200.34716869  .00000022  00000-0  96672-5 0  9990,2 55432  70.0003 175.5847 0002875 267.6362  92.4468 14.98327708 81294,6950.2,96.107,574.063,570.067,0.0
55432.0,STARLINK-5637,PAYLOAD,2024-07-18 22:45:07,14.98332067,0.0003048,69.9997,174.0685,269.9946,90.0864,1.9613e-05,1.41e-06,0.0,0 STARLINK-5637,1 55432U 23014AT  24200.94800607  .00000141  00000-0  19613-4 0  9991,2 55432  69.9997 174.0685 0003048 269.9946  90.0864 14.98332067 81381,6950.186,96.107,574.17,569.933,0.0
55432.0,STARLINK-5637,PAYLOAD,2024-07-19 05:09:39,14.98333095,0.0003038,69.9997,173.3952,269.9909,90.0902,3.2333e-05,2.93e-06,0.0,0 STARLINK-5637,1 55432U 23014AT  24201.21504486  .00000293  00000-0  32333-4 0  9990,2 55432  69.9997 173.3952 0003038 269.9909  90.0902 14.98333095 80483,6950.183,96.107,574.16,569.937,0.0
55432.0,STARLINK-5637,PAYLOAD,2024-07-19 08:21:55,14.98335934,0.0003022,69.9998,173.0587,270.0045,90.0768,6.3401e-05,6.64e-06,0.0,0 STARLINK-5637,1 55432U 23014AT  24201.34856195  .00000664  00000-0  63401-4 0  9993,2 55432  69.9998 173.0587 0003022 270.0045  90.0768 14.98335934 81443,6950.175,96.107,574.14,569.939,0.0
55432.0,STARLINK-5637,PAYLOAD,2024-07-19 22:47:08,14.98329088,0.0002933,70.0001,171.5436,271.0973,88.985,7.6254e-05,8.17e-06,0.0,0 STARLINK-5637,1 55432U 23014AT  24201.94940533  .00000817  00000-0  76254-4 0  9999,2 55432  70.0001 171.5436 0002933 271.0973  88.9850 14.98329088 81539,6950.196,96.107,574.099,570.022,0.0
55432.0,STARLINK-5637,PAYLOAD,2024-07-20 05:11:40,14.98332736,0.0002895,70.0001,170.8703,271.142,88.9407,0.00011536,1.284e-05,0.0,0 STARLINK-5637,1 55432U 23014AT  24202.21644218  .00001284  00000-0  11536-3 0  9991,2 55432  70.0001 170.8703 0002895 271.1420  88.9407 14.98332736 80635,6950.184,96.107,574.062,570.037,0.0
55432.0,STARLINK-5637,PAYLOAD,2024-07-20 14:48:28,14.98350262,0.0002891,70.0006,169.8602,274.0072,86.0756,-0.00033075,-4.039e-05,0.0,0 STARLINK-5637,1 55432U 23014AT  24202.61699969 -.00004039  00000-0 -33075-3 0  9993,2 55432  70.0006 169.8602 0002891 274.0072  86.0756 14.98350262 81638,6950.13,96.106,574.005,569.986,0.0
55432.0,STARLINK-5637,PAYLOAD,2024-07-20 22:49:09,14.98327256,0.0002589,70.001,169.0196,269.3108,90.7755,3.1494e-05,2.83e-06,0.0,0 STARLINK-5637,1 55432U 23014AT  24202.95080835  .00000283  00000-0  31494-4 0  9995,2 55432  70.0010 169.0196 0002589 269.3108  90.7755 14.98327256 81687,6950.201,96.107,573.866,570.267,0.0
55432.0,STARLINK-5637,PAYLOAD,2024-07-21 05:13:41,14.98329043,0.0002579,70.0011,168.3459,270.9863,89.1001,5.9163e-05,6.13e-06,0.0,0 STARLINK-5637,1 55432U 23014AT  24203.21784624  .00000613  00000-0  59163-4 0  9992,2 55432  70.0011 168.3459 0002579 270.9863  89.1001 14.98329043 80789,6950.196,96.107,573.853,570.268,0.0
